O3B FM5                 
1 39188U 13031A   26061.49848137 -.00000029  00000+0  00000+0 0  9996
2 39188   0.0973  14.6047 0003345 317.9320  27.4383  5.00116428231709
O3B FM4                 
1 39189U 13031B   26061.61762870 -.00000029  00000+0  00000+0 0  9990
2 39189   0.0556 345.1632 0005035   4.6281  10.1911  5.00115210231718
O3B FM2                 
1 39190U 13031C   26061.68331660 -.00000029  00000+0  00000+0 0  9998
2 39190   0.0567 339.0902 0002843 359.6148  21.2758  5.00115954231787
O3B PFM                 
1 39191U 13031D   26061.49753733 -.00000029  00000+0  00000+0 0  9997
2 39191   0.0664   7.8005 0005128 348.3585   3.8297  5.00116022231331
O3B FM3                 
1 40079U 14038A   26061.56415968 -.00000029  00000+0  00000+0 0  9995
2 40079   0.0530 353.4641 0000424  42.5092 324.0222  5.00115569207712
O3B FM7                 
1 40080U 14038B   26061.31035470 -.00000029  00000+0  00000+0 0  9996
2 40080   0.0588 348.9474 0004489 339.4059  31.6123  5.00115622212533
O3B FM6                 
1 40081U 14038C   26059.33845883 -.00000028  00000+0  00000+0 0  9992
2 40081   0.0550 351.2998 0002672 345.9055  22.7755  5.00115665212383
O3B FM8                 
1 40082U 14038D   26061.59057436 -.00000029  00000+0  00000+0 0  9994
2 40082   0.0559 350.6699 0002656 352.9924  16.3217  5.00115942212615
O3B FM10                
1 40348U 14083A   26061.61762808 -.00000029  00000+0  00000+0 0  9998
2 40348   0.0434 347.0671 0002688 352.6649  20.2500  5.00115198204565
O3B FM11                
1 40349U 14083B   26061.63035217 -.00000029  00000+0  00000+0 0  9998
2 40349   0.0565   0.5014 0003144 329.7416  29.7318  5.00115559204571
O3B FM12                
1 40350U 14083C   26061.45755868 -.00000029  00000+0  00000+0 0  9991
2 40350   0.0560 359.8037 0002644 336.7536  23.4233  5.00115928204586
O3B FM9                 
1 40351U 14083D   26061.48438743 -.00000029  00000+0  00000+0 0  9995
2 40351   0.0577   0.8861 0002738 339.0567  20.0390  5.00115883204731
LEO 1 (LEO VANTAGE 1)   
1 43113U 18004C   26061.68202743  .00004923  00000+0  34221-3 0  9994
2 43113  99.2488 326.0921 0353474  46.3440 316.6496 14.67102193421864
O3B FM15                
1 43231U 18024A   26061.15137011 -.00000029  00000+0  00000+0 0  9992
2 43231   0.0483   0.6162 0002685 337.4441  21.9208  5.00115540145678
O3B FM16                
1 43232U 18024B   26059.80451050 -.00000028  00000+0  00000+0 0  9993
2 43232   0.0446   2.3185 0002785 333.1821  24.4786  5.00115846145520
O3B FM14                
1 43233U 18024C   26061.64427760 -.00000029  00000+0  00000+0 0  9991
2 43233   0.0433   1.2947 0002846 340.5543  18.1335  5.00115628145610
O3B FM13                
1 43234U 18024D   26061.71013027 -.00000029  00000+0  00000+0 0  9997
2 43234   0.0478 329.8800 0004321 333.3966  56.6746  5.00115574145721
