[{"OBJECT_NAME":"O3B FM5","OBJECT_ID":"2013-031A","EPOCH":"2026-03-02T11:57:48.790368","MEAN_MOTION":5.00116428,"ECCENTRICITY":0.0003345,"INCLINATION":0.0973,"RA_OF_ASC_NODE":14.6047,"ARG_OF_PERICENTER":317.932,"MEAN_ANOMALY":27.4383,"EPHEMERIS_TYPE":0,"CLASSIFICATION_TYPE":"U","NORAD_CAT_ID":39188,"ELEMENT_SET_NO":999,"REV_AT_EPOCH":23170,"BSTAR":0,"MEAN_MOTION_DOT":-2.9e-7,"MEAN_MOTION_DDOT":0},{"OBJECT_NAME":"O3B FM4","OBJECT_ID":"2013-031B","EPOCH":"2026-03-02T14:49:23.119680","MEAN_MOTION":5.0011521,"ECCENTRICITY":0.0005035,"INCLINATION":0.0556,"RA_OF_ASC_NODE":345.1632,"ARG_OF_PERICENTER":4.6281,"MEAN_ANOMALY":10.1911,"EPHEMERIS_TYPE":0,"CLASSIFICATION_TYPE":"U","NORAD_CAT_ID":39189,"ELEMENT_SET_NO":999,"REV_AT_EPOCH":23171,"BSTAR":0,"MEAN_MOTION_DOT":-2.9e-7,"MEAN_MOTION_DDOT":0},{"OBJECT_NAME":"O3B FM2","OBJECT_ID":"2013-031C","EPOCH":"2026-03-02T16:23:58.554240","MEAN_MOTION":5.00115954,"ECCENTRICITY":0.0002843,"INCLINATION":0.0567,"RA_OF_ASC_NODE":339.0902,"ARG_OF_PERICENTER":359.6148,"MEAN_ANOMALY":21.2758,"EPHEMERIS_TYPE":0,"CLASSIFICATION_TYPE":"U","NORAD_CAT_ID":39190,"ELEMENT_SET_NO":999,"REV_AT_EPOCH":23178,"BSTAR":0,"MEAN_MOTION_DOT":-2.9e-7,"MEAN_MOTION_DDOT":0},{"OBJECT_NAME":"O3B PFM","OBJECT_ID":"2013-031D","EPOCH":"2026-03-02T11:56:27.225312","MEAN_MOTION":5.00116022,"ECCENTRICITY":0.0005128,"INCLINATION":0.0664,"RA_OF_ASC_NODE":7.8005,"ARG_OF_PERICENTER":348.3585,"MEAN_ANOMALY":3.8297,"EPHEMERIS_TYPE":0,"CLASSIFICATION_TYPE":"U","NORAD_CAT_ID":39191,"ELEMENT_SET_NO":999,"REV_AT_EPOCH":23133,"BSTAR":0,"MEAN_MOTION_DOT":-2.9e-7,"MEAN_MOTION_DDOT":0},{"OBJECT_NAME":"O3B FM3","OBJECT_ID":"2014-038A","EPOCH":"2026-03-02T13:32:23.396352","MEAN_MOTION":5.00115569,"ECCENTRICITY":4.24e-5,"INCLINATION":0.053,"RA_OF_ASC_NODE":353.4641,"ARG_OF_PERICENTER":42.5092,"MEAN_ANOMALY":324.0222,"EPHEMERIS_TYPE":0,"CLASSIFICATION_TYPE":"U","NORAD_CAT_ID":40079,"ELEMENT_SET_NO":999,"REV_AT_EPOCH":20771,"BSTAR":0,"MEAN_MOTION_DOT":-2.9e-7,"MEAN_MOTION_DDOT":0},{"OBJECT_NAME":"O3B FM7","OBJECT_ID":"2014-038B","EPOCH":"2026-03-02T07:26:54.646080","MEAN_MOTION":5.00115622,"ECCENTRICITY":0.0004489,"INCLINATION":0.0588,"RA_OF_ASC_NODE":348.9474,"ARG_OF_PERICENTER":339.4059,"MEAN_ANOMALY":31.6123,"EPHEMERIS_TYPE":0,"CLASSIFICATION_TYPE":"U","NORAD_CAT_ID":40080,"ELEMENT_SET_NO":999,"REV_AT_EPOCH":21253,"BSTAR":0,"MEAN_MOTION_DOT":-2.9e-7,"MEAN_MOTION_DDOT":0},{"OBJECT_NAME":"O3B FM6","OBJECT_ID":"2014-038C","EPOCH":"2026-02-28T08:07:22.842912","MEAN_MOTION":5.00115665,"ECCENTRICITY":0.00026722,"INCLINATION":0.055,"RA_OF_ASC_NODE":351.2998,"ARG_OF_PERICENTER":345.9055,"MEAN_ANOMALY":22.7755,"EPHEMERIS_TYPE":0,"CLASSIFICATION_TYPE":"U","NORAD_CAT_ID":40081,"ELEMENT_SET_NO":999,"REV_AT_EPOCH":21238,"BSTAR":0,"MEAN_MOTION_DOT":-2.8e-7,"MEAN_MOTION_DDOT":0},{"OBJECT_NAME":"O3B FM8","OBJECT_ID":"2014-038D","EPOCH":"2026-03-02T14:10:25.624704","MEAN_MOTION":5.00115942,"ECCENTRICITY":0.0002656,"INCLINATION":0.0559,"RA_OF_ASC_NODE":350.6699,"ARG_OF_PERICENTER":352.9924,"MEAN_ANOMALY":16.3217,"EPHEMERIS_TYPE":0,"CLASSIFICATION_TYPE":"U","NORAD_CAT_ID":40082,"ELEMENT_SET_NO":999,"REV_AT_EPOCH":21261,"BSTAR":0,"MEAN_MOTION_DOT":-2.9e-7,"MEAN_MOTION_DDOT":0},{"OBJECT_NAME":"O3B FM10","OBJECT_ID":"2014-083A","EPOCH":"2026-03-02T14:49:23.066112","MEAN_MOTION":5.00115198,"ECCENTRICITY":0.0002688,"INCLINATION":0.0434,"RA_OF_ASC_NODE":347.0671,"ARG_OF_PERICENTER":352.6649,"MEAN_ANOMALY":20.25,"EPHEMERIS_TYPE":0,"CLASSIFICATION_TYPE":"U","NORAD_CAT_ID":40348,"ELEMENT_SET_NO":999,"REV_AT_EPOCH":20456,"BSTAR":0,"MEAN_MOTION_DOT":-2.9e-7,"MEAN_MOTION_DDOT":0},{"OBJECT_NAME":"O3B FM11","OBJECT_ID":"2014-083B","EPOCH":"2026-03-02T15:07:42.427488","MEAN_MOTION":5.00115559,"ECCENTRICITY":0.0003144,"INCLINATION":0.0565,"RA_OF_ASC_NODE":0.5014,"ARG_OF_PERICENTER":329.7416,"MEAN_ANOMALY":29.7318,"EPHEMERIS_TYPE":0,"CLASSIFICATION_TYPE":"U","NORAD_CAT_ID":40349,"ELEMENT_SET_NO":999,"REV_AT_EPOCH":20457,"BSTAR":0,"MEAN_MOTION_DOT":-2.9e-7,"MEAN_MOTION_DDOT":0},{"OBJECT_NAME":"O3B FM12","OBJECT_ID":"2014-083C","EPOCH":"2026-03-02T10:58:53.069952","MEAN_MOTION":5.00115928,"ECCENTRICITY":0.0002644,"INCLINATION":0.056,"RA_OF_ASC_NODE":359.8037,"ARG_OF_PERICENTER":336.7536,"MEAN_ANOMALY":23.4233,"EPHEMERIS_TYPE":0,"CLASSIFICATION_TYPE":"U","NORAD_CAT_ID":40350,"ELEMENT_SET_NO":999,"REV_AT_EPOCH":20458,"BSTAR":0,"MEAN_MOTION_DOT":-2.9e-7,"MEAN_MOTION_DDOT":0},{"OBJECT_NAME":"O3B FM9","OBJECT_ID":"2014-083D","EPOCH":"2026-03-02T11:37:31.073952","MEAN_MOTION":5.00115883,"ECCENTRICITY":0.0002738,"INCLINATION":0.0577,"RA_OF_ASC_NODE":0.8861,"ARG_OF_PERICENTER":339.0567,"MEAN_ANOMALY":20.039,"EPHEMERIS_TYPE":0,"CLASSIFICATION_TYPE":"U","NORAD_CAT_ID":40351,"ELEMENT_SET_NO":999,"REV_AT_EPOCH":20473,"BSTAR":0,"MEAN_MOTION_DOT":-2.9e-7,"MEAN_MOTION_DDOT":0},{"OBJECT_NAME":"LEO 1 (LEO VANTAGE 1)","OBJECT_ID":"2018-004C","EPOCH":"2026-03-02T16:22:07.169952","MEAN_MOTION":14.67102193,"ECCENTRICITY":0.0353474,"INCLINATION":99.2488,"RA_OF_ASC_NODE":326.0921,"ARG_OF_PERICENTER":46.344,"MEAN_ANOMALY":316.6496,"EPHEMERIS_TYPE":0,"CLASSIFICATION_TYPE":"U","NORAD_CAT_ID":43113,"ELEMENT_SET_NO":999,"REV_AT_EPOCH":42186,"BSTAR":0.00034221,"MEAN_MOTION_DOT":4.923e-5,"MEAN_MOTION_DDOT":0},{"OBJECT_NAME":"O3B FM15","OBJECT_ID":"2018-024A","EPOCH":"2026-03-02T03:37:58.377504","MEAN_MOTION":5.0011554,"ECCENTRICITY":0.00026853,"INCLINATION":0.0483,"RA_OF_ASC_NODE":0.6162,"ARG_OF_PERICENTER":337.4441,"MEAN_ANOMALY":21.9208,"EPHEMERIS_TYPE":0,"CLASSIFICATION_TYPE":"U","NORAD_CAT_ID":43231,"ELEMENT_SET_NO":999,"REV_AT_EPOCH":14567,"BSTAR":0,"MEAN_MOTION_DOT":-2.9e-7,"MEAN_MOTION_DDOT":0},{"OBJECT_NAME":"O3B FM16","OBJECT_ID":"2018-024B","EPOCH":"2026-02-28T19:18:29.707200","MEAN_MOTION":5.00115846,"ECCENTRICITY":0.0002785,"INCLINATION":0.0446,"RA_OF_ASC_NODE":2.3185,"ARG_OF_PERICENTER":333.1821,"MEAN_ANOMALY":24.4786,"EPHEMERIS_TYPE":0,"CLASSIFICATION_TYPE":"U","NORAD_CAT_ID":43232,"ELEMENT_SET_NO":999,"REV_AT_EPOCH":14552,"BSTAR":0,"MEAN_MOTION_DOT":-2.8e-7,"MEAN_MOTION_DDOT":0},{"OBJECT_NAME":"O3B FM14","OBJECT_ID":"2018-024C","EPOCH":"2026-03-02T15:27:45.584640","MEAN_MOTION":5.00115628,"ECCENTRICITY":0.0002846,"INCLINATION":0.0433,"RA_OF_ASC_NODE":1.2947,"ARG_OF_PERICENTER":340.5543,"MEAN_ANOMALY":18.1335,"EPHEMERIS_TYPE":0,"CLASSIFICATION_TYPE":"U","NORAD_CAT_ID":43233,"ELEMENT_SET_NO":999,"REV_AT_EPOCH":14561,"BSTAR":0,"MEAN_MOTION_DOT":-2.9e-7,"MEAN_MOTION_DDOT":0},{"OBJECT_NAME":"O3B FM13","OBJECT_ID":"2018-024D","EPOCH":"2026-03-02T17:02:35.255328","MEAN_MOTION":5.00115574,"ECCENTRICITY":0.0004321,"INCLINATION":0.0478,"RA_OF_ASC_NODE":329.88,"ARG_OF_PERICENTER":333.3966,"MEAN_ANOMALY":56.6746,"EPHEMERIS_TYPE":0,"CLASSIFICATION_TYPE":"U","NORAD_CAT_ID":43234,"ELEMENT_SET_NO":999,"REV_AT_EPOCH":14572,"BSTAR":0,"MEAN_MOTION_DOT":-2.9e-7,"MEAN_MOTION_DDOT":0}]
